start=new Date('2021-10-20T00:00:00.000Z').valueOf();
sats=[{"REF_FRAME":"TEME","MEAN_ANOMALY":"285.2650","MEAN_MOTION_DDOT":"0.0000000000000","OBJECT_ID":"2020-073N","COUNTRY_CODE":"US","OBJECT_TYPE":"PAYLOAD","EPOCH":"2021-10-19T08:51:28.315008","PERIAPSIS":"546.013","CENTER_NAME":"EARTH","REV_AT_EPOCH":"5600","ARG_OF_PERICENTER":"74.8530","DECAY_DATE":null,"TLE_LINE2":"2 46682  53.0530 249.7206 0001723  74.8530 285.2650 15.06402504 56000","ELEMENT_SET_NO":"999","BSTAR":"0.00002277200000","ECCENTRICITY":"0.00017230","TLE_LINE1":"1 46682U 20073N   21292.36907772  .00000058  00000-0  22772-4 0  9992","INCLINATION":"53.0530","FILE":"3171714","MEAN_MOTION":"15.06402504","EPHEMERIS_TYPE":"0","LAUNCH_DATE":"2020-10-18","NORAD_CAT_ID":"46682","GP_ID":"187587757","RA_OF_ASC_NODE":"249.7206","CLASSIFICATION_TYPE":"U","SITE":"AFETR","MEAN_ELEMENT_THEORY":"SGP4","APOAPSIS":"548.399","TIME_SYSTEM":"UTC","OBJECT_NAME":"STARLINK-1776","PERIOD":"95.592","SEMIMAJOR_AXIS":"6925.341","MEAN_MOTION_DOT":"0.00000058","RCS_SIZE":"LARGE"},{"TIME_SYSTEM":"UTC","OBJECT_NAME":"STARLINK-1780","PERIOD":"95.593","MEAN_MOTION_DOT":"0.00002843","RCS_SIZE":"LARGE","SEMIMAJOR_AXIS":"6925.366","SITE":"AFETR","CLASSIFICATION_TYPE":"U","RA_OF_ASC_NODE":"233.8820","MEAN_ELEMENT_THEORY":"SGP4","APOAPSIS":"548.456","LAUNCH_DATE":"2020-10-18","EPHEMERIS_TYPE":"0","GP_ID":"187630583","NORAD_CAT_ID":"46684","TLE_LINE1":"1 46684U 20073Q   21292.55660602  .00002843  00000-0  20969-3 0  9992","MEAN_MOTION":"15.06394248","FILE":"3172644","INCLINATION":"53.0532","ARG_OF_PERICENTER":"74.4345","TLE_LINE2":"2 46684  53.0532 233.8820 0001769  74.4345 285.6839 15.06394248 55658","DECAY_DATE":null,"ECCENTRICITY":"0.00017690","BSTAR":"0.00020969000000","ELEMENT_SET_NO":"999","PERIAPSIS":"546.006","CENTER_NAME":"EARTH","REV_AT_EPOCH":"5565","OBJECT_ID":"2020-073Q","COUNTRY_CODE":"US","OBJECT_TYPE":"PAYLOAD","EPOCH":"2021-10-19T13:21:30.760128","REF_FRAME":"TEME","MEAN_MOTION_DDOT":"0.0000000000000","MEAN_ANOMALY":"285.6839"},{"GP_ID":"187630835","NORAD_CAT_ID":"46685","LAUNCH_DATE":"2020-10-18","EPHEMERIS_TYPE":"0","FILE":"3172644","MEAN_MOTION":"15.06410267","INCLINATION":"53.0534","TLE_LINE1":"1 46685U 20073R   21292.61235283  .00001353  00000-0  10969-3 0  9997","PERIOD":"95.591","RCS_SIZE":"LARGE","MEAN_MOTION_DOT":"0.00001353","SEMIMAJOR_AXIS":"6925.317","TIME_SYSTEM":"UTC","OBJECT_NAME":"STARLINK-1781","APOAPSIS":"548.338","SITE":"AFETR","RA_OF_ASC_NODE":"248.6066","CLASSIFICATION_TYPE":"U","MEAN_ELEMENT_THEORY":"SGP4","OBJECT_TYPE":"PAYLOAD","EPOCH":"2021-10-19T14:41:47.284512","OBJECT_ID":"2020-073R","COUNTRY_CODE":"US","MEAN_MOTION_DDOT":"0.0000000000000","MEAN_ANOMALY":"285.6813","REF_FRAME":"TEME","TLE_LINE2":"2 46685  53.0534 248.6066 0001669  74.4360 285.6813 15.06410267 55442","DECAY_DATE":null,"BSTAR":"0.00010969000000","ECCENTRICITY":"0.00016690","ELEMENT_SET_NO":"999","ARG_OF_PERICENTER":"74.4360","CENTER_NAME":"EARTH","REV_AT_EPOCH":"5544","PERIAPSIS":"546.026"},{"ELEMENT_SET_NO":"999","BSTAR":"0.00003975900000","ECCENTRICITY":"0.00014160","DECAY_DATE":null,"TLE_LINE2":"2 46686  53.0546 248.7031 0001416  74.1239 285.9906 15.06402740 55444","ARG_OF_PERICENTER":"74.1239","REV_AT_EPOCH":"5544","CENTER_NAME":"EARTH","PERIAPSIS":"546.225","EPOCH":"2021-10-19T14:15:15.018048","OBJECT_TYPE":"PAYLOAD","COUNTRY_CODE":"US","OBJECT_ID":"2020-073S","MEAN_ANOMALY":"285.9906","MEAN_MOTION_DDOT":"0.0000000000000","REF_FRAME":"TEME","SEMIMAJOR_AXIS":"6925.340","RCS_SIZE":"LARGE","MEAN_MOTION_DOT":"0.00000311","PERIOD":"95.592","OBJECT_NAME":"STARLINK-1783","TIME_SYSTEM":"UTC","APOAPSIS":"548.186","MEAN_ELEMENT_THEORY":"SGP4","RA_OF_ASC_NODE":"248.7031","CLASSIFICATION_TYPE":"U","SITE":"AFETR","NORAD_CAT_ID":"46686","GP_ID":"187631080","EPHEMERIS_TYPE":"0","LAUNCH_DATE":"2020-10-18","INCLINATION":"53.0546","FILE":"3172644","MEAN_MOTION":"15.06402740","TLE_LINE1":"1 46686U 20073S   21292.59392382  .00000311  00000-0  39759-4 0  9991"},{"REF_FRAME":"TEME","MEAN_ANOMALY":"279.7161","MEAN_MOTION_DDOT":"0.0000000000000","OBJECT_ID":"2020-073T","COUNTRY_CODE":"US","OBJECT_TYPE":"PAYLOAD","EPOCH":"2021-10-19T12:20:27.742272","PERIAPSIS":"545.997","CENTER_NAME":"EARTH","REV_AT_EPOCH":"5592","ARG_OF_PERICENTER":"80.4022","DECAY_DATE":null,"TLE_LINE2":"2 46687  53.0544 214.0524 0001714  80.4022 279.7161 15.06409562 55923","ELEMENT_SET_NO":"999","BSTAR":"0.00028457000000","ECCENTRICITY":"0.00017140","TLE_LINE1":"1 46687U 20073T   21292.51420998  .00003961  00000-0  28457-3 0  9995","INCLINATION":"53.0544","MEAN_MOTION":"15.06409562","FILE":"3171120","EPHEMERIS_TYPE":"0","LAUNCH_DATE":"2020-10-18","GP_ID":"187571789","NORAD_CAT_ID":"46687","CLASSIFICATION_TYPE":"U","RA_OF_ASC_NODE":"214.0524","SITE":"AFETR","MEAN_ELEMENT_THEORY":"SGP4","APOAPSIS":"548.371","TIME_SYSTEM":"UTC","OBJECT_NAME":"STARLINK-1784","PERIOD":"95.592","SEMIMAJOR_AXIS":"6925.319","RCS_SIZE":"LARGE","MEAN_MOTION_DOT":"0.00003961"},{"APOAPSIS":"441.143","CLASSIFICATION_TYPE":"U","RA_OF_ASC_NODE":"237.6394","SITE":"AFETR","MEAN_ELEMENT_THEORY":"SGP4","PERIOD":"93.374","SEMIMAJOR_AXIS":"6817.774","MEAN_MOTION_DOT":"0.00001696","RCS_SIZE":"LARGE","TIME_SYSTEM":"UTC","OBJECT_NAME":"STARLINK-1786","INCLINATION":"53.0547","FILE":"3172644","MEAN_MOTION":"15.42193307","TLE_LINE1":"1 46688U 20073U   21292.56376431  .00001696  00000-0  48379-4 0  9992","GP_ID":"187630083","NORAD_CAT_ID":"46688","EPHEMERIS_TYPE":"0","LAUNCH_DATE":"2020-10-18","CENTER_NAME":"EARTH","REV_AT_EPOCH":"5560","PERIAPSIS":"438.136","DECAY_DATE":null,"TLE_LINE2":"2 46688  53.0547 237.6394 0002205  55.2145 304.9066 15.42193307 55602","ELEMENT_SET_NO":"999","BSTAR":"0.00004837900000","ECCENTRICITY":"0.00022050","ARG_OF_PERICENTER":"55.2145","MEAN_ANOMALY":"304.9066","MEAN_MOTION_DDOT":"0.0000000000000","REF_FRAME":"TEME","OBJECT_TYPE":"PAYLOAD","EPOCH":"2021-10-19T13:31:49.236384","OBJECT_ID":"2020-073U","COUNTRY_CODE":"US"},{"EPHEMERIS_TYPE":"0","LAUNCH_DATE":"2020-10-18","NORAD_CAT_ID":"46689","GP_ID":"187631335","TLE_LINE1":"1 46689U 20073V   21292.60499049  .00002652  00000-0  19684-3 0  9998","INCLINATION":"53.0551","MEAN_MOTION":"15.06410031","FILE":"3172644","TIME_SYSTEM":"UTC","OBJECT_NAME":"STARLINK-1788","PERIOD":"95.592","SEMIMAJOR_AXIS":"6925.318","RCS_SIZE":"LARGE","MEAN_MOTION_DOT":"0.00002652","RA_OF_ASC_NODE":"248.6609","CLASSIFICATION_TYPE":"U","SITE":"AFETR","MEAN_ELEMENT_THEORY":"SGP4","APOAPSIS":"548.347","OBJECT_ID":"2020-073V","COUNTRY_CODE":"US","OBJECT_TYPE":"PAYLOAD","EPOCH":"2021-10-19T14:31:11.178336","REF_FRAME":"TEME","MEAN_ANOMALY":"284.2209","MEAN_MOTION_DDOT":"0.0000000000000","ARG_OF_PERICENTER":"75.8966","DECAY_DATE":null,"TLE_LINE2":"2 46689  53.0551 248.6609 0001681  75.8966 284.2209 15.06410031 56690","ELEMENT_SET_NO":"999","BSTAR":"0.00019684000000","ECCENTRICITY":"0.00016810","PERIAPSIS":"546.019","CENTER_NAME":"EARTH","REV_AT_EPOCH":"5669"},{"APOAPSIS":"548.383","CLASSIFICATION_TYPE":"U","RA_OF_ASC_NODE":"223.9397","SITE":"AFETR","MEAN_ELEMENT_THEORY":"SGP4","PERIOD":"95.592","SEMIMAJOR_AXIS":"6925.331","MEAN_MOTION_DOT":"0.00000806","RCS_SIZE":"LARGE","TIME_SYSTEM":"UTC","OBJECT_NAME":"STARLINK-1789","INCLINATION":"53.0546","MEAN_MOTION":"15.06405728","FILE":"3171712","TLE_LINE1":"1 46690U 20073W   21292.53909312  .00000806  00000-0  73016-4 0  9990","NORAD_CAT_ID":"46690","GP_ID":"187587672","EPHEMERIS_TYPE":"0","LAUNCH_DATE":"2020-10-18","CENTER_NAME":"EARTH","REV_AT_EPOCH":"5626","PERIAPSIS":"546.009","DECAY_DATE":null,"TLE_LINE2":"2 46690  53.0546 223.9397 0001714  72.9796 287.1381 15.06405728 56265","ELEMENT_SET_NO":"999","ECCENTRICITY":"0.00017140","BSTAR":"0.00007301600000","ARG_OF_PERICENTER":"72.9796","MEAN_ANOMALY":"287.1381","MEAN_MOTION_DDOT":"0.0000000000000","REF_FRAME":"TEME","OBJECT_TYPE":"PAYLOAD","EPOCH":"2021-10-19T12:56:17.645568","OBJECT_ID":"2020-073W","COUNTRY_CODE":"US"},{"ARG_OF_PERICENTER":"71.8185","ELEMENT_SET_NO":"999","BSTAR":"0.00003536500000","ECCENTRICITY":"0.00017760","DECAY_DATE":null,"TLE_LINE2":"2 46691  53.0554 233.9585 0001776  71.8185 288.2997 15.06402437 56127","PERIAPSIS":"545.976","REV_AT_EPOCH":"5612","CENTER_NAME":"EARTH","COUNTRY_CODE":"US","OBJECT_ID":"2020-073X","EPOCH":"2021-10-19T12:54:57.336768","OBJECT_TYPE":"PAYLOAD","REF_FRAME":"TEME","MEAN_ANOMALY":"288.2997","MEAN_MOTION_DDOT":"0.0000000000000","OBJECT_NAME":"STARLINK-1790","TIME_SYSTEM":"UTC","SEMIMAJOR_AXIS":"6925.341","MEAN_MOTION_DOT":"0.00000245","RCS_SIZE":"LARGE","PERIOD":"95.592","MEAN_ELEMENT_THEORY":"SGP4","CLASSIFICATION_TYPE":"U","RA_OF_ASC_NODE":"233.9585","SITE":"AFETR","APOAPSIS":"548.436","EPHEMERIS_TYPE":"0","LAUNCH_DATE":"2020-10-18","GP_ID":"187587666","NORAD_CAT_ID":"46691","TLE_LINE1":"1 46691U 20073X   21292.53816362  .00000245  00000-0  35365-4 0  9995","INCLINATION":"53.0554","FILE":"3171712","MEAN_MOTION":"15.06402437"},{"DECAY_DATE":null,"TLE_LINE2":"2 46692  53.0537 248.7244 0001550  74.6001 285.5159 15.06407987 55442","ELEMENT_SET_NO":"999","BSTAR":"0.00006346300000","ECCENTRICITY":"0.00015500","ARG_OF_PERICENTER":"74.6001","CENTER_NAME":"EARTH","REV_AT_EPOCH":"5544","PERIAPSIS":"546.116","OBJECT_TYPE":"PAYLOAD","EPOCH":"2021-10-19T14:09:55.502208","OBJECT_ID":"2020-073Y","COUNTRY_CODE":"US","MEAN_MOTION_DDOT":"0.0000000000000","MEAN_ANOMALY":"285.5159","REF_FRAME":"TEME","PERIOD":"95.592","SEMIMAJOR_AXIS":"6925.324","MEAN_MOTION_DOT":"0.00000664","RCS_SIZE":"LARGE","TIME_SYSTEM":"UTC","OBJECT_NAME":"STARLINK-1791","APOAPSIS":"548.263","CLASSIFICATION_TYPE":"U","RA_OF_ASC_NODE":"248.7244","SITE":"AFETR","MEAN_ELEMENT_THEORY":"SGP4","GP_ID":"187630584","NORAD_CAT_ID":"46692","EPHEMERIS_TYPE":"0","LAUNCH_DATE":"2020-10-18","INCLINATION":"53.0537","FILE":"3172644","MEAN_MOTION":"15.06407987","TLE_LINE1":"1 46692U 20073Y   21292.59022572  .00000664  00000-0  63463-4 0  9999"}];
